IRIDIUM 26              
1 24903U 97043A   25209.61350210  .00000341  00000+0  10814-3 0  9991
2 24903  86.3934  93.2188 0002002  81.6889 278.4535 14.37170708462697
IRIDIUM 22              
1 24907U 97043E   25209.43823653  .00000295  00000+0  94795-4 0  9990
2 24907  86.3943  96.8690 0002074  87.1775 272.9659 14.35979657462696
DUMMY MASS 1            
1 24925U 97048A   25209.26472088  .00000415  00000+0  43196-4 0  9991
2 24925  86.3356 116.3424 0007145  21.0467 339.1050 14.87013731511231
DUMMY MASS 2            
1 24926U 97048B   25209.23371592  .00000411  00000+0  42941-4 0  9990
2 24926  86.3359 117.9716 0008342  29.5347 330.6347 14.86765667511007
IRIDIUM 29              
1 24944U 97051A   25209.30715533  .00000401  00000+0  12998-3 0  9996
2 24944  86.3981 126.6583 0002321  89.4665 270.6798 14.36494933459178
IRIDIUM 33              
1 24946U 97051C   25209.47360212  .00000295  00000+0  97002-4 0  9997
2 24946  86.3896 125.8523 0006277 316.5113  43.5587 14.34913653458665
IRIDIUM 28              
1 24948U 97051E   25209.25473879  .00000337  00000+0  10614-3 0  9999
2 24948  86.3983 124.1728 0001871  73.7033 286.4371 14.37409234459748
IRIDIUM 36              
1 24967U 97056C   25209.35087090  .00000384  00000+0  12134-3 0  9993
2 24967  86.4015 155.7200 0002001  88.5260 271.6167 14.37635779458139
